NORAD_CAT_ID,OBJECT_NAME,OBJECT_TYPE,EPOCH,MEAN_MOTION,ECCENTRICITY,INCLINATION,RA_OF_ASC_NODE,ARG_OF_PERICENTER,MEAN_ANOMALY,BSTAR,MEAN_MOTION_DOT,MEAN_MOTION_DDOT,TLE_LINE0,TLE_LINE1,TLE_LINE2,SEMIMAJOR_AXIS,PERIOD,APOGEE,PERIGEE,DECAYED
53634.0,STARLINK-4592,PAYLOAD,2023-06-13 01:08:26,15.08839627,0.0001069,53.2163,36.0831,92.6411,267.4703,9.6594e-07,-2.72e-06,0.0,0 STARLINK-4592,1 53634U 22104AY  23164.04753130 -.00000272  00000-0  96594-6 0  9990,2 53634  53.2163  36.0831 0001069  92.6411 267.4703 15.08839627 44144,6917.882,95.438,540.486,539.007,0.0
53634.0,STARLINK-4592,PAYLOAD,2023-06-13 21:48:27,15.0884065,0.0001003,53.2181,32.2169,102.5956,257.5149,6.1454e-05,6.9e-06,0.0,0 STARLINK-4592,1 53634U 22104AY  23164.90864815  .00000690  00000-0  61454-4 0  9996,2 53634  53.2181  32.2169 0001003 102.5956 257.5149 15.08840650 45298,6917.878,95.438,540.437,539.05,0.0
53634.0,STARLINK-4592,PAYLOAD,2023-06-14 00:59:13,15.08845206,0.0001109,53.2181,31.6225,100.9063,259.2054,-2.4988e-05,-6.86e-06,0.0,0 STARLINK-4592,1 53634U 22104AY  23165.04112805 -.00000686  00000-0 -24988-4 0  9995,2 53634  53.2181  31.6225 0001109 100.9063 259.2054 15.08845206 45311,6917.864,95.437,540.497,538.962,0.0
53634.0,STARLINK-4592,PAYLOAD,2023-06-15 00:50:01,15.08830067,0.0001101,53.2183,27.1628,98.6909,261.4207,-4.7252e-05,-1.039e-05,0.0,0 STARLINK-4592,1 53634U 22104AY  23166.03474010 -.00001039  00000-0 -47252-4 0  9996,2 53634  53.2183  27.1628 0001101  98.6909 261.4207 15.08830067 44441,6917.911,95.438,540.537,539.014,0.0
53634.0,STARLINK-4592,PAYLOAD,2023-06-15 23:05:24,15.08845912,0.0001003,53.2182,23.0009,86.4969,273.6137,4.6381e-05,4.51e-06,0.0,0 STARLINK-4592,1 53634U 22104AY  23166.96208866  .00000451  00000-0  46381-4 0  9999,2 53634  53.2182  23.0009 0001003  86.4969 273.6137 15.08845912 44587,6917.862,95.437,540.421,539.033,0.0
53634.0,STARLINK-4592,PAYLOAD,2023-06-16 07:02:20,15.08842259,9.62e-05,53.2176,21.5143,87.3548,272.7554,-2.2399e-05,-6.44e-06,0.0,0 STARLINK-4592,1 53634U 22104AY  23167.29329170 -.00000644  00000-0 -22399-4 0  9997,2 53634  53.2176  21.5143 0000962  87.3548 272.7554 15.08842259 45651,6917.873,95.437,540.404,539.073,0.0
53634.0,STARLINK-4592,PAYLOAD,2023-06-16 18:10:02,15.08842279,7.7e-05,53.2175,19.4321,92.8706,267.2374,2.5785e-05,1.23e-06,0.0,0 STARLINK-4592,1 53634U 22104AY  23167.75697041  .00000123  00000-0  25785-4 0  9995,2 53634  53.2175  19.4321 0000770  92.8706 267.2374 15.08842279 45727,6917.873,95.437,540.271,539.206,0.0
53634.0,STARLINK-4592,PAYLOAD,2023-06-16 22:56:11,15.08849722,9.83e-05,53.2183,18.5412,94.4536,265.6569,9.2344e-05,1.183e-05,0.0,0 STARLINK-4592,1 53634U 22104AY  23167.95568310  .00001183  00000-0  92344-4 0  9995,2 53634  53.2183  18.5412 0000983  94.4536 265.6569 15.08849722 44730,6917.851,95.437,540.396,539.036,0.0
53634.0,STARLINK-4592,PAYLOAD,2023-06-17 06:53:07,15.0883546,0.0001176,53.2182,17.0542,80.0463,280.0662,-7.9964e-06,-4.15e-06,0.0,0 STARLINK-4592,1 53634U 22104AY  23168.28689610 -.00000415  00000-0 -79964-5 0  9992,2 53634  53.2182  17.0542 0001176  80.0463 280.0662 15.08835460 44786,6917.894,95.438,540.573,538.946,0.0
53634.0,STARLINK-4592,PAYLOAD,2023-06-17 22:47:01,15.08816936,0.0001223,53.2184,14.0804,77.6639,282.449,-0.00026569,-4.511e-05,0.0,0 STARLINK-4592,1 53634U 22104AY  23168.94932269 -.00004511  00000-0 -26569-3 0  9998,2 53634  53.2184  14.0804 0001223  77.6639 282.4490 15.08816936 44889,6917.951,95.439,540.662,538.97,0.0
53634.0,STARLINK-4592,PAYLOAD,2023-06-18 06:43:56,15.08829288,9.41e-05,53.2183,12.5934,76.0928,284.0169,-0.00010063,-1.888e-05,0.0,0 STARLINK-4592,1 53634U 22104AY  23169.28051118 -.00001888  00000-0 -10063-3 0  9997,2 53634  53.2183  12.5934 0000941  76.0928 284.0169 15.08829288 44936,6917.913,95.438,540.429,539.127,0.0
53634.0,STARLINK-4592,PAYLOAD,2023-06-19 00:13:09,15.08845905,9.27e-05,53.2182,9.3225,78.4631,281.6465,-4.0851e-05,-9.38e-06,0.0,0 STARLINK-4592,1 53634U 22104AY  23170.00914097 -.00000938  00000-0 -40851-4 0  9997,2 53634  53.2182   9.3225 0000927  78.4631 281.6465 15.08845905 45042,6917.862,95.437,540.369,539.086,0.0
53634.0,STARLINK-4592,PAYLOAD,2023-06-19 06:34:42,15.08847369,9.54e-05,53.2184,8.1336,79.0279,281.082,-2.2758e-05,-6.5e-06,0.0,0 STARLINK-4592,1 53634U 22104AY  23170.27409898 -.00000650  00000-0 -22758-4 0  9991,2 53634  53.2184   8.1336 0000954  79.0279 281.0820 15.08847369 46102,6917.858,95.437,540.383,539.063,0.0
53634.0,STARLINK-4592,PAYLOAD,2023-06-19 19:17:46,15.08839848,9.2e-05,53.218,5.7549,70.1123,289.9968,0.00028553,4.259e-05,0.0,0 STARLINK-4592,1 53634U 22104AY  23170.80401358  .00004259  00000-0  28553-3 0  9998,2 53634  53.2180   5.7549 0000920  70.1123 289.9968 15.08839848 46181,6917.881,95.438,540.382,539.109,0.0
53634.0,STARLINK-4592,PAYLOAD,2023-06-20 00:03:55,15.088478,9.63e-05,53.2182,4.8628,68.354,291.7555,0.00024845,3.669e-05,0.0,0 STARLINK-4592,1 53634U 22104AY  23171.00272934  .00003669  00000-0  24845-3 0  9991,2 53634  53.2182   4.8628 0000963  68.3540 291.7555 15.08847800 45190,6917.857,95.437,540.388,539.055,0.0
53634.0,STARLINK-4592,PAYLOAD,2023-06-20 06:25:28,15.08842487,7.87e-05,53.218,3.6747,59.3735,300.7334,0.00018149,2.602e-05,0.0,0 STARLINK-4592,1 53634U 22104AY  23171.26769472  .00002602  00000-0  18149-3 0  9993,2 53634  53.2180   3.6747 0000787  59.3735 300.7334 15.08842487 45234,6917.873,95.437,540.282,539.193,0.0
53634.0,STARLINK-4592,PAYLOAD,2023-06-20 17:33:11,15.08838153,9.01e-05,53.2184,1.5919,75.6245,284.4848,7.6741e-06,-1.66e-06,0.0,0 STARLINK-4592,1 53634U 22104AY  23171.73138360 -.00000166  00000-0  76741-5 0  9999,2 53634  53.2184   1.5919 0000901  75.6245 284.4848 15.08838153 45302,6917.886,95.438,540.374,539.128,0.0
53634.0,STARLINK-4592,PAYLOAD,2023-06-20 19:08:34,15.08844207,8.62e-05,53.218,1.2942,79.5791,280.5298,-4.0777e-05,-9.37e-06,0.0,0 STARLINK-4592,1 53634U 22104AY  23171.79762154 -.00000937  00000-0 -40777-4 0  9995,2 53634  53.2180   1.2942 0000862  79.5791 280.5298 15.08844207 46333,6917.868,95.437,540.329,539.136,0.0
53634.0,STARLINK-4592,PAYLOAD,2023-06-20 22:19:20,15.08848333,8.83e-05,53.2184,0.7002,75.4042,284.7048,-6.5141e-06,-3.91e-06,0.0,0 STARLINK-4592,1 53634U 22104AY  23171.93009722 -.00000391  00000-0 -65141-5 0  9993,2 53634  53.2184   0.7002 0000883  75.4042 284.7048 15.08848333 45337,6917.855,95.437,540.331,539.109,0.0
53634.0,STARLINK-4592,PAYLOAD,2023-06-21 18:59:21,15.08841466,7.62e-05,53.2186,356.8324,83.795,276.3129,-6.8662e-05,-1.38e-05,0.0,0 STARLINK-4592,1 53634U 22104AY  23172.79122090 -.00001380  00000-0 -68662-4 0  9991,2 53634  53.2186 356.8324 0000762  83.7950 276.3129 15.08841466 45468,6917.876,95.437,540.268,539.214,0.0
53634.0,STARLINK-4592,PAYLOAD,2023-06-22 22:00:54,15.08841605,8.52e-05,53.2182,351.7759,97.1242,262.9847,-2.4808e-05,-6.82e-06,0.0,0 STARLINK-4592,1 53634U 22104AY  23173.91729971 -.00000682  00000-0 -24808-4 0  9995,2 53634  53.2182 351.7759 0000852  97.1242 262.9847 15.08841605 45635,6917.875,95.437,540.33,539.151,0.0
53634.0,STARLINK-4592,PAYLOAD,2023-06-23 18:40:56,15.08836029,8.76e-05,53.2171,347.9147,78.6848,281.4243,-9.1939e-06,-4.34e-06,0.0,0 STARLINK-4592,1 53634U 22104AY  23174.77842668 -.00000434  00000-0 -91939-5 0  9994,2 53634  53.2171 347.9147 0000876  78.6848 281.4243 15.08836029 45767,6917.893,95.438,540.364,539.152,0.0
53634.0,STARLINK-4592,PAYLOAD,2023-06-24 21:42:28,15.08843975,9.44e-05,53.2186,342.8592,82.3149,277.795,9.7628e-05,1.267e-05,0.0,0 STARLINK-4592,1 53634U 22104AY  23175.90450169  .00001267  00000-0  97628-4 0  9994,2 53634  53.2186 342.8592 0000944  82.3149 277.7950 15.08843975 45933,6917.868,95.437,540.386,539.08,0.0
53634.0,STARLINK-4592,PAYLOAD,2023-06-25 04:04:02,15.08832438,0.0001313,53.2177,341.667,68.0547,292.0585,-7.7125e-05,-1.515e-05,0.0,0 STARLINK-4592,1 53634U 22104AY  23176.16947583 -.00001515  00000-0 -77125-4 0  9992,2 53634  53.2177 341.6670 0001313  68.0547 292.0585 15.08832438 45971,6917.904,95.438,540.677,538.86,0.0
53634.0,STARLINK-4592,PAYLOAD,2023-06-25 16:47:07,15.08838256,0.0001038,53.2182,339.2836,76.1952,283.9155,2.571e-05,1.21e-06,0.0,0 STARLINK-4592,1 53634U 22104AY  23176.69938882  .00000121  00000-0  25710-4 0  9995,2 53634  53.2182 339.2836 0001038  76.1952 283.9155 15.08838256 46054,6917.886,95.438,540.469,539.033,0.0
53634.0,STARLINK-4592,PAYLOAD,2023-06-25 21:33:16,15.08844512,9.09e-05,53.2175,338.3954,64.3911,295.7175,6.884e-05,8.08e-06,0.0,0 STARLINK-4592,1 53634U 22104AY  23176.89810325  .00000808  00000-0  68840-4 0  9991,2 53634  53.2175 338.3954 0000909  64.3911 295.7175 15.08844512 46085,6917.867,95.437,540.36,539.103,0.0
53634.0,STARLINK-4592,PAYLOAD,2023-06-26 10:16:22,15.08828361,7.42e-05,53.2165,336.0139,80.6063,279.5013,2.2842e-05,7.6e-07,0.0,0 STARLINK-4592,1 53634U 22104AY  23177.42803534  .00000076  00000-0  22842-4 0  9994,2 53634  53.2165 336.0139 0000742  80.6063 279.5013 15.08828361 46162,6917.916,95.438,540.294,539.268,0.0
53634.0,STARLINK-4592,PAYLOAD,2023-06-26 16:37:54,15.08834415,8.35e-05,53.216,334.8273,90.266,269.8428,3.4305e-05,2.58e-06,0.0,0 STARLINK-4592,1 53634U 22104AY  23177.69299146  .00000258  00000-0  34305-4 0  9990,2 53634  53.2160 334.8273 0000835  90.2660 269.8428 15.08834415 46209,6917.897,95.438,540.34,539.185,0.0
53634.0,STARLINK-4592,PAYLOAD,2023-06-26 19:48:40,15.08844686,8.7e-05,53.2178,334.2338,83.7895,276.3197,-5.4492e-06,-3.74e-06,0.0,0 STARLINK-4592,1 53634U 22104AY  23177.82546699 -.00000374  00000-0 -54492-5 0  9994,2 53634  53.2178 334.2338 0000870  83.7895 276.3197 15.08844686 46229,6917.866,95.437,540.333,539.129,0.0
53634.0,STARLINK-4592,PAYLOAD,2023-06-27 10:07:09,15.08833442,8.07e-05,53.2168,331.5574,91.3947,268.7138,1.6499e-05,-2.5e-07,0.0,0 STARLINK-4592,1 53634U 22104AY  23178.42163260 -.00000025  00000-0  16499-4 0  9996,2 53634  53.2168 331.5574 0000807  91.3947 268.7138 15.08833442 46311,6917.9,95.438,540.324,539.207,0.0
